NORAD_CAT_ID,OBJECT_NAME,OBJECT_TYPE,EPOCH,MEAN_MOTION,ECCENTRICITY,INCLINATION,RA_OF_ASC_NODE,ARG_OF_PERICENTER,MEAN_ANOMALY,BSTAR,MEAN_MOTION_DOT,MEAN_MOTION_DDOT,TLE_LINE0,TLE_LINE1,TLE_LINE2,SEMIMAJOR_AXIS,PERIOD,APOGEE,PERIGEE,DECAYED
55416.0,STARLINK-5624,PAYLOAD,2024-02-11 13:37:48,14.98335314,0.0003139,70.0002,193.3902,270.3566,89.7233,5.8435e-05,6.04e-06,0.0,0 STARLINK-5624,1 55416U 23014AB  24042.56792138  .00000604  00000-0  58435-4 0  9993,2 55416  70.0002 193.3902 0003139 270.3566  89.7233 14.98335314 58156,6950.176,96.107,574.223,569.86,0.0
55416.0,STARLINK-5624,PAYLOAD,2024-02-11 20:02:20,14.9833886,0.0002856,70.0007,192.717,267.5983,92.4849,0.00018082,2.066e-05,0.0,0 STARLINK-5624,1 55416U 23014AB  24042.83495528  .00002066  00000-0  18082-3 0  9993,2 55416  70.0007 192.7170 0002856 267.5983  92.4849 14.98338860 58194,6950.165,96.106,574.015,570.046,0.0
55416.0,STARLINK-5624,PAYLOAD,2024-02-12 12:03:41,14.98308513,0.0002163,70.0022,191.0339,271.0525,89.0386,0.00040469,4.736e-05,0.0,0 STARLINK-5624,1 55416U 23014AB  24043.50256814  .00004736  00000-0  40469-3 0  9991,2 55416  70.0022 191.0339 0002163 271.0525  89.0386 14.98308513 57350,6950.259,96.108,573.628,570.621,0.0
55416.0,STARLINK-5624,PAYLOAD,2024-02-12 20:04:22,14.98314254,0.0002261,70.0018,190.1925,268.2747,91.8153,0.00028706,3.332e-05,0.0,0 STARLINK-5624,1 55416U 23014AB  24043.83637083  .00003332  00000-0  28706-3 0  9999,2 55416  70.0018 190.1925 0002261 268.2747  91.8153 14.98314254 58341,6950.242,96.108,573.678,570.535,0.0
55416.0,STARLINK-5624,PAYLOAD,2024-02-13 12:05:42,14.98334443,0.0002744,70.0011,188.5092,265.6722,94.4123,-2.0467e-05,-3.37e-06,0.0,0 STARLINK-5624,1 55416U 23014AB  24044.50396314 -.00000337  00000-0 -20467-4 0  9994,2 55416  70.0011 188.5092 0002744 265.6722  94.4123 14.98334443 57505,6950.179,96.107,573.951,570.137,0.0
55416.0,STARLINK-5624,PAYLOAD,2024-02-13 13:41:50,14.98332957,0.0002673,70.001,188.3415,257.0287,103.0574,-1.5351e-05,-2.76e-06,0.0,0 STARLINK-5624,1 55416U 23014AB  24044.57072382 -.00000276  00000-0 -15351-4 0  9995,2 55416  70.0010 188.3415 0002673 257.0287 103.0574 14.98332957 58453,6950.184,96.107,573.907,570.191,0.0
55416.0,STARLINK-5624,PAYLOAD,2024-02-13 20:06:22,14.98336908,0.0002755,70.0006,187.6671,261.3359,98.7488,1.0237e-05,2.9e-07,0.0,0 STARLINK-5624,1 55416U 23014AB  24044.83775989  .00000029  00000-0  10237-4 0  9999,2 55416  70.0006 187.6671 0002755 261.3359  98.7488 14.98336908 58491,6950.172,96.107,573.951,570.122,0.0
55416.0,STARLINK-5624,PAYLOAD,2024-02-14 12:07:43,14.98327023,0.0003239,69.9995,185.9824,270.4768,89.6019,6.3911e-06,-1.7e-07,0.0,0 STARLINK-5624,1 55416U 23014AB  24045.50536551 -.00000017  00000-0  63911-5 0  9990,2 55416  69.9995 185.9824 0003239 270.4768  89.6019 14.98327023 57653,6950.202,96.107,574.318,569.816,0.0
55416.0,STARLINK-5624,PAYLOAD,2024-02-14 15:19:59,14.98328852,0.0003022,69.9997,185.646,264.5927,95.4887,5.252e-05,5.34e-06,0.0,0 STARLINK-5624,1 55416U 23014AB  24045.63888313  .00000534  00000-0  52520-4 0  9996,2 55416  69.9997 185.6460 0003022 264.5927  95.4887 14.98328852 58615,6950.196,96.107,574.162,569.961,0.0
55416.0,STARLINK-5624,PAYLOAD,2024-02-14 16:56:07,14.98328837,0.0002936,70.0003,185.4784,265.4964,94.5859,4.7198e-05,4.7e-06,0.0,0 STARLINK-5624,1 55416U 23014AB  24045.70564347  .00000470  00000-0  47198-4 0  9996,2 55416  70.0003 185.4784 0002936 265.4964  94.5859 14.98328837 58620,6950.196,96.107,574.102,570.021,0.0
55416.0,STARLINK-5624,PAYLOAD,2024-02-15 02:32:55,14.98334502,0.0003329,69.9996,184.4695,269.0687,91.009,1.0615e-05,3.4e-07,0.0,0 STARLINK-5624,1 55416U 23014AB  24046.10619995  .00000034  00000-0  10615-4 0  9991,2 55416  69.9996 184.4695 0003329 269.0687  91.0090 14.98334502 57744,6950.179,96.107,574.358,569.73,0.0
55416.0,STARLINK-5624,PAYLOAD,2024-02-15 12:09:44,14.98330394,0.0002829,70.0004,183.4607,266.7475,93.336,-8.2561e-05,-1.078e-05,0.0,0 STARLINK-5624,1 55416U 23014AB  24046.50676701 -.00001078  00000-0 -82561-4 0  9993,2 55416  70.0004 183.4607 0002829 266.7475  93.3360 14.98330394 57809,6950.192,96.107,574.023,570.09,0.0
55416.0,STARLINK-5624,PAYLOAD,2024-02-15 13:45:52,14.98327775,0.0002644,70.0004,183.2922,255.9478,104.1387,-4.6337e-05,-6.46e-06,0.0,0 STARLINK-5624,1 55416U 23014AB  24046.57352748 -.00000646  00000-0 -46337-4 0  9993,2 55416  70.0004 183.2922 0002644 255.9478 104.1387 14.98327775 58759,6950.2,96.107,573.902,570.227,0.0
55416.0,STARLINK-5624,PAYLOAD,2024-02-15 18:34:16,14.98338778,0.0002564,70.0005,182.7875,261.2251,98.8617,-0.00010543,-1.351e-05,0.0,0 STARLINK-5624,1 55416U 23014AB  24046.77380192 -.00001351  00000-0 -10543-3 0  9992,2 55416  70.0005 182.7875 0002564 261.2251  98.8617 14.98338778 57840,6950.166,96.106,573.813,570.249,0.0
55416.0,STARLINK-5624,PAYLOAD,2024-02-16 15:24:00,14.98336657,0.0002937,70.0005,180.597,268.7325,91.3497,0.00012461,1.394e-05,0.0,0 STARLINK-5624,1 55416U 23014AB  24047.64167683  .00001394  00000-0  12461-3 0  9993,2 55416  70.0005 180.5970 0002937 268.7325  91.3497 14.98336657 58917,6950.172,96.107,574.079,569.996,0.0
55416.0,STARLINK-5624,PAYLOAD,2024-02-16 18:36:16,14.9833835,0.0002913,70.0007,180.2604,268.0415,92.041,0.000145,1.638e-05,0.0,0 STARLINK-5624,1 55416U 23014AB  24047.77519479  .00001638  00000-0  14500-3 0  9998,2 55416  70.0007 180.2604 0002913 268.0415  92.0410 14.98338350 57999,6950.167,96.106,574.057,570.007,0.0
55416.0,STARLINK-5624,PAYLOAD,2024-02-17 12:13:46,14.98322862,0.0002707,70.0018,178.412,269.0293,91.0555,2.6658e-05,2.25e-06,0.0,0 STARLINK-5624,1 55416U 23014AB  24048.50956866  .00000225  00000-0  26658-4 0  9994,2 55416  70.0018 178.4120 0002707 269.0293  91.0555 14.98322862 58103,6950.215,96.107,573.961,570.199,0.0
55416.0,STARLINK-5624,PAYLOAD,2024-02-17 15:26:02,14.98323892,0.000291,70.0004,178.0729,268.7129,91.3696,3.4128e-05,3.14e-06,0.0,0 STARLINK-5624,1 55416U 23014AB  24048.64308804  .00000314  00000-0  34128-4 0  9992,2 55416  70.0004 178.0729 0002910 268.7129  91.3696 14.98323892 59068,6950.212,96.107,574.099,570.054,0.0
55416.0,STARLINK-5624,PAYLOAD,2024-02-17 18:38:18,14.98327482,0.0002993,70.0007,177.7359,268.9231,91.1586,8.9334e-06,1.4e-07,0.0,0 STARLINK-5624,1 55416U 23014AB  24048.77660689  .00000014  00000-0  89334-5 0  9995,2 55416  70.0007 177.7359 0002993 268.9231  91.1586 14.98327482 59080,6950.201,96.107,574.146,569.985,0.0
55416.0,STARLINK-5624,PAYLOAD,2024-02-18 12:15:46,14.98335507,0.000309,70.0004,175.8842,268.9865,91.094,5.4375e-05,5.56e-06,0.0,0 STARLINK-5624,1 55416U 23014AB  24049.51095999  .00000556  00000-0  54375-4 0  9991,2 55416  70.0004 175.8842 0003090 268.9865  91.0940 14.98335507 58253,6950.176,96.107,574.188,569.893,0.0
55416.0,STARLINK-5624,PAYLOAD,2024-02-18 15:28:02,14.98358618,0.0002651,70.0004,175.55,252.7054,107.3815,-0.00027487,-3.373e-05,0.0,0 STARLINK-5624,1 55416U 23014AB  24049.64447207 -.00003373  00000-0 -27487-3 0  9993,2 55416  70.0004 175.5500 0002651 252.7054 107.3815 14.98358618 59211,6950.104,96.105,573.812,570.127,0.0
55416.0,STARLINK-5624,PAYLOAD,2024-02-18 18:40:18,14.98343822,0.0002949,70.0008,175.2125,264.2424,95.8399,0.00012029,1.343e-05,0.0,0 STARLINK-5624,1 55416U 23014AB  24049.77799170  .00001343  00000-0  12029-3 0  9995,2 55416  70.0008 175.2125 0002949 264.2424  95.8399 14.98343822 58290,6950.15,96.106,574.065,569.966,0.0
55416.0,STARLINK-5624,PAYLOAD,2024-02-19 12:17:48,14.98324385,0.0002654,70.0012,173.3615,261.4968,98.5891,5.5227e-05,5.66e-06,0.0,0 STARLINK-5624,1 55416U 23014AB  24050.51236697  .00000566  00000-0  55227-4 0  9993,2 55416  70.0012 173.3615 0002654 261.4968  98.5891 14.98324385 58406,6950.21,96.107,573.92,570.231,0.0
55416.0,STARLINK-5624,PAYLOAD,2024-02-19 18:42:20,14.98322834,0.0002684,70.0014,172.6891,259.6803,100.4054,2.9357e-05,2.57e-06,0.0,0 STARLINK-5624,1 55416U 23014AB  24050.77940961  .00000257  00000-0  29357-4 0  9999,2 55416  70.0014 172.6891 0002684 259.6803 100.4054 14.98322834 59385,6950.215,96.107,573.945,570.215,0.0
55416.0,STARLINK-5624,PAYLOAD,2024-02-20 01:06:52,14.9833955,0.0002824,70.0013,172.0147,268.0595,92.0241,-0.00017897,-2.228e-05,0.0,0 STARLINK-5624,1 55416U 23014AB  24051.04644279 -.00002228  00000-0 -17897-3 0  9990,2 55416  70.0013 172.0147 0002824 268.0595  92.0241 14.98339550 58487,6950.163,96.106,573.991,570.066,0.0
55416.0,STARLINK-5624,PAYLOAD,2024-02-20 13:55:56,14.98335043,0.0002786,70.0011,170.6681,267.0222,93.0618,5.7678e-05,5.95e-06,0.0,0 STARLINK-5624,1 55416U 23014AB  24051.58051971  .00000595  00000-0  57678-4 0  9995,2 55416  70.0011 170.6681 0002786 267.0222  93.0618 14.98335043 59501,6950.177,96.107,573.979,570.106,0.0
55416.0,STARLINK-5624,PAYLOAD,2024-02-20 17:08:12,14.98336499,0.0002694,70.0012,170.3314,263.1351,96.9502,4.456e-05,4.39e-06,0.0,0 STARLINK-5624,1 55416U 23014AB  24051.71403864  .00000439  00000-0  44560-4 0  9995,2 55416  70.0012 170.3314 0002694 263.1351  96.9502 14.98336499 59522,6950.173,96.107,573.91,570.165,0.0
55416.0,STARLINK-5624,PAYLOAD,2024-02-21 12:21:49,14.98327614,0.000282,70.0008,168.3113,268.7553,91.3283,0.00011168,1.24e-05,0.0,0 STARLINK-5624,1 55416U 23014AB  24052.51516102  .00001240  00000-0  11168-3 0  9992,2 55416  70.0008 168.3113 0002820 268.7553  91.3283 14.98327614 58700,6950.2,96.107,574.025,570.105,0.0
55416.0,STARLINK-5624,PAYLOAD,2024-02-21 13:57:57,14.9833018,0.0002859,70.0005,168.1423,267.2458,92.8373,0.00012277,1.372e-05,0.0,0 STARLINK-5624,1 55416U 23014AB  24052.58191859  .00001372  00000-0  12277-3 0  9995,2 55416  70.0005 168.1423 0002859 267.2458  92.8373 14.98330180 59652,6950.192,96.107,574.044,570.07,0.0
55416.0,STARLINK-5624,PAYLOAD,2024-02-21 17:10:14,14.98327097,0.000286,70.0006,167.8058,266.2131,93.8702,0.00014984,1.695e-05,0.0,0 STARLINK-5624,1 55416U 23014AB  24052.71543998  .00001695  00000-0  14984-3 0  9990,2 55416  70.0006 167.8058 0002860 266.2131  93.8702 14.98327097 59674,6950.202,96.107,574.055,570.079,0.0
